{"type": "FeatureCollection", "features": [{"type": "Feature", "properties": {"name": "frame B1", "kind": "frame"}, "geometry": {"type": "Polygon", "coordinates": [[[32.42352197487946, 46.39412096529051], [33.494276045306485, 46.394505802987574], [33.50039663342467, 47.060421068965006], [32.416383614970584, 47.06002722558536], [32.42352197487946, 46.39412096529051]]]}}, {"type": "Feature", "properties": {"name": "frame B2", "kind": "frame"}, "geometry": {"type": "Polygon", "coordinates": [[[32.193972348504815, 46.365734023936255], [32.68394570078158, 46.368137987460216], [32.67989730060075, 47.05719746324225], [32.18364896055796, 47.05473526925554], [32.193972348504815, 46.365734023936255]]]}}, {"type": "Feature", "properties": {"name": "west_of_inhulets_mouth", "kind": "reporting_region"}, "geometry": {"type": "Polygon", "coordinates": [[[32.502690862196744, 46.72747324445746], [32.75134184455917, 46.728283676946766], [32.74924901754454, 47.178221287111846], [32.49850542819704, 47.17739808227591], [32.502690862196744, 46.72747324445746]]]}}, {"type": "Feature", "properties": {"name": "inhulets_valley", "kind": "reporting_region"}, "geometry": {"type": "Polygon", "coordinates": [[[32.751134822149034, 46.77327904001102], [33.03929468638575, 46.77354286778364], [33.0395924500998, 47.17848885432452], [32.74924901754454, 47.178221287111846], [32.751134822149034, 46.77327904001102]]]}}, {"type": "Feature", "properties": {"name": "terrace_fragments_ne", "kind": "reporting_region"}, "geometry": {"type": "Polygon", "coordinates": [[[33.03934058223519, 46.8365363558345], [33.39340112949701, 46.83586708484611], [33.395919698977536, 47.177811581128786], [33.0395924500998, 47.17848885432452], [33.03934058223519, 46.8365363558345]]]}}, {"type": "Feature", "properties": {"name": "Kherson gauge 80805", "kind": "point"}, "geometry": {"type": "Point", "coordinates": [32.612026, 46.62375]}}, {"type": "Feature", "properties": {"name": "Kakhovka dam", "kind": "point"}, "geometry": {"type": "Point", "coordinates": [33.3667, 46.7783]}}]}