{"type": "FeatureCollection", "features": [{"type": "Feature", "properties": {"name": "Kherson 80805", "role": "input (anchor of the water surface)", "kind": "gauge"}, "geometry": {"type": "Point", "coordinates": [32.612026, 46.62375]}}, {"type": "Feature", "properties": {"name": "Kalynivske 80575 (Inhulets)", "role": "withheld: independent tributary validation site", "kind": "gauge"}, "geometry": {"type": "Point", "coordinates": [32.96055555555556, 47.11638888888889]}}, {"type": "Feature", "properties": {"name": "Mykolaiv 98027 (liman)", "role": "withheld: independent validation of the western delta", "kind": "gauge"}, "geometry": {"type": "Point", "coordinates": [31.97207222222222, 46.984375]}}]}