{"type": "FeatureCollection", "features": [{"type": "Feature", "properties": {"name": "Kakhovka pool before the breach", "kind": "reservoir"}, "geometry": {"type": "Polygon", "coordinates": [[[33.37547779985916, 46.774193699828416], [33.37830890037262, 46.77590799963656], [33.37242009936357, 46.77600669975988], [33.36778519975292, 46.78179450000643], [33.358944699650536, 46.78567539985636], [33.35899020039773, 46.786938899847456], [33.39814779940851, 46.82139800038154], [33.41803909998054, 46.83310640010579], [33.41739940046374, 46.8351491002607], [33.41961619996749, 46.833803700387435], [33.44109800000726, 46.841948399842344], [33.46295539970124, 46.84668530017308], [33.462872199473274, 46.847644700169155], [33.4683023005886, 46.84781810029271], [33.48694910000134, 46.85408790011979], [33.50461269953239, 46.85799560011896], [33.50680679958384, 46.865061999778796], [33.50095149956284, 46.8646787001279], [33.500812099452446, 46.86296399983932], [33.497334599526226, 46.862374400061086], [33.49012080045469, 46.8653646001749], [33.489528000546976, 46.86781089999064], [33.486175200330685, 46.86743499983262], [33.48711939999196, 46.868166699732086], [33.4912405994675, 46.86824830016722], [33.49070679998004, 46.86605689990228], [33.49893719986919, 46.86415969956115], [33.506766600235046, 46.87127670039526], [33.50634279946638, 46.86963000044719], [33.510054900429424, 46.86939159969816], [33.506578800378584, 46.86801449981358], [33.5105029005908, 46.8658249002634], [33.51109829985942, 46.86099619980078], [33.5260274994916, 46.85757560008721], [33.53764950020674, 46.85902089996801], [33.55715989943047, 46.85626789974174], [33.569036700557355, 46.85612849986864], [33.573516000002556, 46.85663650017429], [33.57927740034342, 46.860616500212764], [33.58711209984203, 46.86218090036376], [33.59215070037766, 46.86793099972025], [33.59349309998209, 46.88272480007327], [33.5861974996799, 46.8828422002162], [33.58348580010588, 46.88352049965824], [33.58178790047369, 46.88525099999808], [33.588964199668496, 46.88361669993823], [33.5946169002885, 46.885536999980715], [33.595593299963014, 46.88810159993064], [33.5952364998808, 46.91457219991112], [33.590238899896164, 46.91981009971172], [33.59500049986839, 46.91808620010209], [33.5969370998175, 46.93554110022482], [33.59978820058219, 46.94117619983954], [33.61009059936928, 46.953739100185366], [33.60871600008956, 46.95719429969526], [33.61266550016573, 46.955269699617766], [33.6207738003375, 46.960694100212805], [33.63746259972031, 46.97601039974916], [33.64885930012976, 46.9821389996811], [33.653276900640506, 46.98859070030211], [33.652198600551785, 46.991067999535275], [33.64706750005553, 46.99314270003873], [33.64318640011767, 46.997328399735956], [33.63685910046189, 46.99419469958523], [33.61666740017989, 46.99232490000126], [33.61686859998283, 46.99611740040905], [33.613851099982305, 47.00030110027606], [33.60892920003038, 46.99607169973899], [33.603682799783044, 46.996497900363586], [33.60393229957752, 46.999203500139025], [33.60204400000529, 46.99913580036999], [33.59879049961636, 47.002426600218726], [33.601239299768, 47.00356429963056], [33.60803600047166, 47.00071259957932], [33.610096000501464, 47.004932499777276], [33.60644009950409, 47.00717130016972], [33.61599679936224, 47.005453800283085], [33.622541399761346, 46.99508560024084], [33.62740290015087, 46.998184599661144], [33.63659349933767, 46.99762659973184], [33.64146709992451, 47.003524099907615], [33.64787220049162, 47.00072909988959], [33.651018399902675, 46.995954600238974], [33.65839180019704, 47.004553899595564], [33.65852060007476, 47.0210553996317], [33.65153609989244, 47.041381199669885], [33.64920529961004, 47.04372080015799], [33.650393500670575, 47.04600730030304], [33.64336340032493, 47.05023089972876], [33.636370900108496, 47.051557699594156], [33.63182189941317, 47.05858759959391], [33.635888099785014, 47.05854189977089], [33.64296909998564, 47.06257090041727], [33.644991500650825, 47.06529870024129], [33.64226910061789, 47.068576300049884], [33.65113379964461, 47.07520760022478], [33.647405500086954, 47.079891000289784], [33.64855079988607, 47.08382880006014], [33.64189090018121, 47.08422510031087], [33.636612299778925, 47.08751430002524], [33.642290499524414, 47.08579759987323], [33.64777029973457, 47.08646609967951], [33.65031570055831, 47.08560590028814], [33.64884579982853, 47.0838836001409], [33.66185189969089, 47.08914340038691], [33.66655919997904, 47.088624699828515], [33.65759790002425, 47.086403999756385], [33.64990799962808, 47.080228900329935], [33.65515709943505, 47.07597839996623], [33.65423980014342, 47.070852599688834], [33.64868489948186, 47.069562799636266], [33.65066439965617, 47.06383709993147], [33.65373279958993, 47.06260009964311], [33.64663300009578, 47.05947929957217], [33.644473799368505, 47.055592699986626], [33.656895199982394, 47.048938800164954], [33.68828240066336, 47.06585410012482], [33.72516809959336, 47.080442600286936], [33.75926169937595, 47.09680559984518], [33.777669699350085, 47.116766699638006], [33.78600060030512, 47.13176639975944], [33.78125849965218, 47.17363880044633], [33.77667880005628, 47.179912799801265], [33.77467359949246, 47.17928529988417], [33.75975250040917, 47.184542900266536], [33.7529798996862, 47.19105400009418], [33.7437825994665, 47.192495700289825], [33.74311739968956, 47.19401950016097], [33.74843089950408, 47.1947940996586], [33.75476900006545, 47.19312820040186], [33.758271899655035, 47.191801299859385], [33.761340399799394, 47.18648970018471], [33.78383199980259, 47.1812414000352], [33.8055136994298, 47.1916973996051], [33.80701840003813, 47.193944700330896], [33.81331350032762, 47.19317560016053], [33.823213600146815, 47.195311700192796], [33.85242280027916, 47.207342900044495], [33.854064299430924, 47.211209400164925], [33.84951000063852, 47.217367400352394], [33.85141429988955, 47.21775729957273], [33.85441280057987, 47.215350300285074], [33.85744389949663, 47.208554600419376], [33.86623889999421, 47.21050599998711], [33.881546299787146, 47.218972400001945], [33.89976109950339, 47.23330040032773], [33.8957834005752, 47.24160469982676], [33.88596649980299, 47.2437006002906], [33.87996109957047, 47.25267320028279], [33.86766349954547, 47.256445799770994], [33.8843169997576, 47.25298910011258], [33.88799430041518, 47.24601119973961], [33.90054840029881, 47.24534029994092], [33.90176209943535, 47.240260799768365], [33.90425650009886, 47.237935300127404], [33.906710699810226, 47.23860910030441], [33.91021639967589, 47.24221650032877], [33.91620579978438, 47.267727400253285], [33.921867899808284, 47.27697259967691], [33.93458690030762, 47.286503600269796], [33.95761099957944, 47.29861599988446], [33.962455099921605, 47.30385990038884], [33.966379199504544, 47.31319340017028], [33.966078800275085, 47.32161599962082], [33.962666999998135, 47.326155899805784], [33.96805819943854, 47.32665949963125], [33.97076729980394, 47.35192070009504], [33.966750699996155, 47.35523699957681], [33.95019200033783, 47.35867840041324], [33.94818570055527, 47.36112940020024], [33.9732375998871, 47.35779900043039], [33.97536719985418, 47.36926470028116], [33.972559000109825, 47.38737110004525], [33.955068299726214, 47.42057080026504], [33.9501759004094, 47.42232029954276], [33.95343750049048, 47.42511129986393], [33.95138290037875, 47.4290815996403], [33.94152449997786, 47.43807360009942], [33.93249209943057, 47.4415023997653], [33.93094320055108, 47.44510680011743], [33.92266450051584, 47.44408380016273], [33.9275327006526, 47.447871300295084], [33.9258617004799, 47.45039969981713], [33.91869749941738, 47.45345590007645], [33.9166670999052, 47.456821999742424], [33.910299499920704, 47.455236900106556], [33.90456230059774, 47.457516599551475], [33.90709159988283, 47.45808060020144], [33.91015469939297, 47.45649550022221], [33.91738589934876, 47.45867540000554], [33.920749399772276, 47.45498299956688], [33.92452599971508, 47.45362640017971], [33.92851439993247, 47.45678749955925], [33.92748710061198, 47.45279930031533], [33.93647250014792, 47.44363749999037], [33.94885360045383, 47.443258399560854], [33.947606400513045, 47.45518609968465], [33.93898310010353, 47.472222300187795], [33.93645109968009, 47.49180119996271], [33.931617699652506, 47.497930300096066], [33.92783100064256, 47.50897520014786], [33.92530649980351, 47.50795050044547], [33.923340400283884, 47.509637200110795], [33.928435299859565, 47.50991619963055], [33.930040600302476, 47.51305590027126], [33.92405930054084, 47.52459279966229], [33.925277000512324, 47.52881460026246], [33.929622200063115, 47.53299810015417], [33.93403170022944, 47.53467130019693], [33.9397261003014, 47.543116599591144], [33.937118899900966, 47.54490000000536], [33.93842120047116, 47.54636470016999], [33.93136020027206, 47.55019009998668], [33.9302175994909, 47.55754859959768], [33.92719209940836, 47.56231250033382], [33.920320299773124, 47.5670471002915], [33.92071320024205, 47.569704599841735], [33.92194570052509, 47.56711039999035], [33.93722849956505, 47.55881990007666], [33.93670989964684, 47.55702180030811], [33.94039659986177, 47.55342779986171], [33.94437830022889, 47.552187700242634], [33.947960399952336, 47.54759940016612], [33.95529230017773, 47.5447080999415], [33.9587429006707, 47.53854830035749], [33.968570499988196, 47.53509149969556], [33.974258199536095, 47.53860890035905], [33.97462159934231, 47.5457291996423], [33.96411539948983, 47.558536900254275], [33.97282180006365, 47.56883330030961], [33.98605849951325, 47.572515899962916], [33.98698520066017, 47.571022000033516], [33.98790390022347, 47.57283070031732], [33.99352310051233, 47.57301529970856], [34.00239849965854, 47.5691372999871], [34.003712799829344, 47.56334330020081], [34.00891629981767, 47.562643700452746], [34.014240499625885, 47.567600800137], [34.01267140022804, 47.57078050007191], [34.01493919977763, 47.57404669970924], [34.021471700596464, 47.57757879970182], [34.03144149988431, 47.578955699567175], [34.03430879980318, 47.58227219996463], [34.04229369954895, 47.58571769997107], [34.05815900002564, 47.58036339972188], [34.077511099617524, 47.583450000262765], [34.08925919940164, 47.58360010017281], [34.095131900000254, 47.57622439958553], [34.09864160018028, 47.575659000312584], [34.10485490030449, 47.57791620002196], [34.1127701003812, 47.57721510004958], [34.12134920054163, 47.57456239956723], [34.12490579934234, 47.570890799790185], [34.135232300186146, 47.569808699782], [34.137831299772465, 47.56822520020006], [34.138861299828086, 47.563427400353405], [34.145175200368136, 47.55391380004175], [34.148782800181074, 47.539176599724435], [34.158151700197536, 47.53285050016425], [34.167040599899714, 47.533095799686215], [34.168970400293354, 47.53751339986235], [34.17671929963283, 47.541550400434325], [34.18866460056631, 47.54211620007], [34.2022070000398, 47.53841789985224], [34.21681169957319, 47.52853749996662], [34.22244699950951, 47.52671189957213], [34.22542419938109, 47.528769299650385], [34.22342869985074, 47.53644050042286], [34.22500309940813, 47.54253720021044], [34.2351633006003, 47.54909840035951], [34.24590020043297, 47.55226289991517], [34.244848800031086, 47.55656750016627], [34.24768120023637, 47.56222559969618], [34.24268689943918, 47.56433780014851], [34.24124120009741, 47.57383860013358], [34.24498560057559, 47.58229930010546], [34.2500603002622, 47.587088100173325], [34.25891160014245, 47.589530300098794], [34.27770719999807, 47.58992560004493], [34.287089600245565, 47.58711609977773], [34.30955440042488, 47.57446649960178], [34.320900100528036, 47.571200300332414], [34.32596950061623, 47.574442999828726], [34.331720200350894, 47.57445390041857], [34.34122059989312, 47.57061039995277], [34.35431779937996, 47.55981839966756], [34.3556471003818, 47.55944389988487], [34.35507149944713, 47.56070530031382], [34.35867060066796, 47.558739100132506], [34.36710659984289, 47.558627400067294], [34.37310400021888, 47.55620099994419], [34.37197680053997, 47.55555700042865], [34.384823899703754, 47.55162520031089], [34.38828129976499, 47.55226470025642], [34.396567900615715, 47.550642599832656], [34.40146569968003, 47.54773700006844], [34.40766829958969, 47.54674580021392], [34.40974030010077, 47.54810659991158], [34.40822479986754, 47.55384140019239], [34.41078100015425, 47.56011160007483], [34.42139980045045, 47.56613490014135], [34.4366026000639, 47.56949829972319], [34.45299630038367, 47.56698100026148], [34.465586500453526, 47.57384230021159], [34.46517349991069, 47.575049200408124], [34.449443699476866, 47.58001420031975], [34.445885699480804, 47.58372490005375], [34.448718100046406, 47.593189700300734], [34.45547439976989, 47.59706759986235], [34.46021010037102, 47.602820100081566], [34.45041190016086, 47.6004598996085], [34.44107249963192, 47.59184390026405], [34.4404542003941, 47.596270099649814], [34.442594600516415, 47.59827239957064], [34.434242200128594, 47.60103419965672], [34.43637730065778, 47.60812690025883], [34.43431870061497, 47.60995239966147], [34.43650070043188, 47.61183390020157], [34.43405449956927, 47.61202379985187], [34.43192350017355, 47.61526759955215], [34.433467100306885, 47.620776499675785], [34.43564500005786, 47.622340399651634], [34.433676299757344, 47.62792270042092], [34.436229799894285, 47.62453500001217], [34.435749599895374, 47.62185589996307], [34.43402769950289, 47.62075670011223], [34.43668979989898, 47.618679299652726], [34.4372758005555, 47.61209250031062], [34.44249539992398, 47.607852100410824], [34.45436419997317, 47.61012690002208], [34.46144660049224, 47.6133492000853], [34.47409719959171, 47.61286819990399], [34.47909410044883, 47.61082400011781], [34.490388900286526, 47.61761260039784], [34.50453759987791, 47.615103899744454], [34.52452669957129, 47.61757009989311], [34.532920700142085, 47.61273440024834], [34.54392179981158, 47.610606099661936], [34.54911190014086, 47.613693600031525], [34.54809130026055, 47.616823399704295], [34.578260800491755, 47.62055239967414], [34.59818960030497, 47.61929220020517], [34.61154970013621, 47.609794200186535], [34.60853489972022, 47.60947589973356], [34.604479400690295, 47.61306170034258], [34.60252940050458, 47.6099063000523], [34.60465639983052, 47.60567840007431], [34.61649029952848, 47.60337979969665], [34.61739689985511, 47.601876899907175], [34.62028029966026, 47.60368000004585], [34.641453600048166, 47.59178600005668], [34.64439730016579, 47.58389140001698], [34.65055970056466, 47.58483579962898], [34.66041680008395, 47.58329260030466], [34.668842200416734, 47.584570399857995], [34.67226150014182, 47.59225999989255], [34.68089279992021, 47.59494249957693], [34.707924799751595, 47.58540200011025], [34.712213000285665, 47.58611840040473], [34.71270379954313, 47.582695500202725], [34.72582789937291, 47.57621630017932], [34.748079500171116, 47.57277100007133], [34.77515909942036, 47.577830299631565], [34.82020409985115, 47.579230699679115], [34.83530219944635, 47.5755522001139], [34.851913199722695, 47.57540749962482], [34.85857310018713, 47.57259549964229], [34.869971099594146, 47.56302019970893], [34.882026299727144, 47.560899000306144], [34.88905910065865, 47.55656569996727], [34.89980180057454, 47.55515709991768], [34.955518800511264, 47.558104300019636], [34.963804099567206, 47.56375320022921], [34.97870389972641, 47.566706800371236], [34.987815299632665, 47.570660999577804], [35.002916199889874, 47.57264619979988], [35.02098620039299, 47.57963599966413], [35.031929599589354, 47.5914205997093], [35.0322059000691, 47.604982100090936], [35.043007100063576, 47.61474499996894], [35.04214080031928, 47.61660189958137], [35.04666029948875, 47.61763159964426], [35.045225300182004, 47.61928680009417], [35.04713240045449, 47.61839639959126], [35.065465300138335, 47.62871619985944], [35.07912310002852, 47.63376289991777], [35.087322599889674, 47.642828299564904], [35.10935960044261, 47.654692599742255], [35.10878029953134, 47.66263800036208], [35.1041561001769, 47.66712500023664], [35.10403009953316, 47.676894399860075], [35.10680080012097, 47.67836619976348], [35.10964529984745, 47.676046500394655], [35.114386100660035, 47.685166800205984], [35.129324600635286, 47.69991710042131], [35.13028890042899, 47.7039153998413], [35.126075099489796, 47.70701269978792], [35.12763619988878, 47.70704159962708], [35.12562719976532, 47.71208070036347], [35.12940379939382, 47.71582719979958], [35.13639089960856, 47.7178149003708], [35.14475139970463, 47.72500460019594], [35.14153270053105, 47.732275400146385], [35.14616760058522, 47.73821220024766], [35.15233129943112, 47.74085120024941], [35.15081580015158, 47.7470285999158], [35.153492699846254, 47.75990779975096], [35.15050740002808, 47.76883510034279], [35.141754014640355, 47.77463174226102], [35.13415719859548, 47.775356892883494], [35.12962980079246, 47.777876372721714], [35.1228241634562, 47.784794777972756], [35.115402486442065, 47.789269591265494], [35.11019793516647, 47.79625543212995], [35.10708043494598, 47.796245720291274], [35.10255471811498, 47.800004201865484], [35.10257414179237, 47.80182031570112], [35.0838255046395, 47.81416207310102], [35.074425435434954, 47.81938883599405], [35.06796846152805, 47.82112657569118], [35.04366212827992, 47.835904013594615], [35.04404088998895, 47.83733650980185], [35.04730649574952, 47.835457269014725], [35.05067495257965, 47.858167223540796], [35.05373641544674, 47.86043050678482], [35.080108562583334, 47.867923189248636], [35.08114951145039, 47.874748739873496], [35.0844135797818, 47.877750824429654], [35.08250533986445, 47.879615150876106], [35.08585771280919, 47.8781171905153], [35.090385581905124, 47.881510167387745], [35.10879229285765, 47.87609109483626], [35.10915757309287, 47.87486351371787], [35.10302266160129, 47.87285147832386], [35.103486747146036, 47.871779590420495], [35.1079030450719, 47.87243829248401], [35.10730422501416, 47.86873159632658], [35.103663024800724, 47.867028327524864], [35.09589632865163, 47.86656124787981], [35.08643796583935, 47.85963514538679], [35.08513104106331, 47.85401222504445], [35.087077206251024, 47.851959769296506], [35.08655024460022, 47.84703746842174], [35.09236964497643, 47.84045788625446], [35.09238674409649, 47.84297547236331], [35.09533693091436, 47.84073388928043], [35.09347859266845, 47.8400891596849], [35.10908472444977, 47.8343474655674], [35.11275287156611, 47.831482672984805], [35.11676964423483, 47.830497426858514], [35.11875529412012, 47.8313917271885], [35.12643592713623, 47.827883552307355], [35.14562977691877, 47.823039871564106], [35.15068420796454, 47.819964210258945], [35.15148796512405, 47.815636078498265], [35.1599317752992, 47.80854419232126], [35.15874947994766, 47.81137024873136], [35.1608511980019, 47.814280654560584], [35.162810716760035, 47.81499945792435], [35.16715424693806, 47.81333835506031], [35.16288232078534, 47.81070092696837], [35.16419598228706, 47.81320951518226], [35.16274337581881, 47.81408865787955], [35.15973472607396, 47.81102106178517], [35.16311108876058, 47.80508305917018], [35.16910873946724, 47.80302527018105], [35.168376962643535, 47.80172508213063], [35.16363430778603, 47.80410651464785], [35.16645446956119, 47.79947950691402], [35.16780406026641, 47.80111596985314], [35.16949048725406, 47.80003191841732], [35.166130238323994, 47.79890205198403], [35.16633320849951, 47.79425854453538], [35.16959715207685, 47.7995962768253], [35.17087039322467, 47.79842408656222], [35.16883028814039, 47.79041861091497], [35.166152974773055, 47.78998936394928], [35.165016152319645, 47.787897610635014], [35.167221587879254, 47.78456672084649], [35.167755894432354, 47.786226481628475], [35.16981460884406, 47.78602753769913], [35.1689960966776, 47.78326505913733], [35.16684750224065, 47.78381073391496], [35.164572791562804, 47.78189518808097], [35.16940535276084, 47.78243375771829], [35.16944975988794, 47.78118893713178], [35.16483568175516, 47.78087773198518], [35.16059639977496, 47.77411221735934], [35.16510659991002, 47.76060739966618], [35.17053670019421, 47.760756699980725], [35.165980999512335, 47.76033340002959], [35.16558940026285, 47.75921550026928], [35.17300839963513, 47.755740700344425], [35.173244500586094, 47.75376800003173], [35.20189579937083, 47.75382390006658], [35.20070489991946, 47.7447958001002], [35.20411129937455, 47.74879240033292], [35.204733599934045, 47.754105199653544], [35.2004956993859, 47.75558030016763], [35.203639299537166, 47.75771519998763], [35.20345689975979, 47.7597924004242], [35.20587889990323, 47.760481199797624], [35.20364189946109, 47.759576100228784], [35.20401210010868, 47.75735459983073], [35.206977300562905, 47.75825740025444], [35.20417030027903, 47.75696149973078], [35.208606699371856, 47.754274700171585], [35.20972790050626, 47.74663910032578], [35.192475900104746, 47.731400500339205], [35.19239620012761, 47.72519460037511], [35.19481970032974, 47.719068699888524], [35.196145299593034, 47.71775480043733], [35.193619700005065, 47.72297069970176], [35.20352830005489, 47.7091328001607], [35.22088929941703, 47.695427500217754], [35.22182470050712, 47.69037199984455], [35.216655999858204, 47.682478100195915], [35.21756529943689, 47.67933780040534], [35.22409379974227, 47.67128120040339], [35.23131160061527, 47.669255499797025], [35.253386199396765, 47.64866319968212], [35.297752599388104, 47.58316049986488], [35.32194479993178, 47.57209689970745], [35.32875089939571, 47.5622744997128], [35.336639299452905, 47.527434600288686], [35.33267769989196, 47.522060700294965], [35.32434399952265, 47.51600510045644], [35.28957460002864, 47.50745770041663], [35.28129190028207, 47.5032468001754], [35.27539640032542, 47.497163700044965], [35.27414919937615, 47.49299369979466], [35.283027299828575, 47.47070120027511], [35.272985100147466, 47.45773240017108], [35.27209530040804, 47.45168249983149], [35.27001720033044, 47.45203479979563], [35.26929040039119, 47.45423760035318], [35.26676910029689, 47.45435820018197], [35.26577400048913, 47.45646650004936], [35.27063010057241, 47.469384800101764], [35.27017950026787, 47.472713599816544], [35.2662902998115, 47.47335910037428], [35.231700499372835, 47.45569390000245], [35.210173100068616, 47.44634580025215], [35.20082289992332, 47.44406739996042], [35.177141699710766, 47.445137699903036], [35.16947860006093, 47.44371189956354], [35.14781849954944, 47.44438580012035], [35.13382670007687, 47.44804539969336], [35.10682760030321, 47.450492200135415], [35.06520509955985, 47.44928430016109], [35.059805800279634, 47.44638019962689], [35.05642620019855, 47.4416111999318], [35.048726900472765, 47.438435600378845], [35.027412800472, 47.41586840022306], [35.00014539937304, 47.40097080012818], [34.982973899994875, 47.393238099560406], [34.97443909984564, 47.39200520001173], [34.97785629998077, 47.39105369982851], [34.97733320033657, 47.389967800421864], [34.97516599958616, 47.39103009998835], [34.96123190019598, 47.38850779961634], [34.94215609955872, 47.389312300455536], [34.91540909984823, 47.394913999560025], [34.88677919985029, 47.403425300422874], [34.87684959956625, 47.4077094995986], [34.869155699488026, 47.41339640029402], [34.86229330052236, 47.42107350038745], [34.86505870011467, 47.42961330043083], [34.872780700172704, 47.43835120029773], [34.87361490055723, 47.445146800256246], [34.87128139996505, 47.448580500172866], [34.85661509998075, 47.449770399892586], [34.83351049966165, 47.457460300331704], [34.82296679969378, 47.4634827998614], [34.81913659961228, 47.46295239968694], [34.792011399953466, 47.46730330043824], [34.766314899534464, 47.47825730031428], [34.74905310038342, 47.49196430041196], [34.74120230059831, 47.48986739973937], [34.719371799349986, 47.49152209974776], [34.70470550031157, 47.48901369983637], [34.70093160024869, 47.49088420034549], [34.69685730020561, 47.488841600102255], [34.692226500322334, 47.490721999647384], [34.68841909938334, 47.490296900375746], [34.68749640038756, 47.49478429977425], [34.685640299966224, 47.492203600443574], [34.68356970039192, 47.49247900020729], [34.68517629954731, 47.4945776998859], [34.68163310004768, 47.493773000299036], [34.67985479980395, 47.49484229967034], [34.68610169961466, 47.49630660042825], [34.68308149954055, 47.49660009965773], [34.68464790010701, 47.49841589975757], [34.68208369958822, 47.4987892001773], [34.68402560028418, 47.50245140003083], [34.68047440025162, 47.50247490041478], [34.681957699485395, 47.50680360045325], [34.674586999940225, 47.51236560016012], [34.67417389990938, 47.51058479992505], [34.67722620061371, 47.50958379956419], [34.674102800270695, 47.51020699955109], [34.672073700296025, 47.507980800331055], [34.671566800622216, 47.51267540000419], [34.673405399664745, 47.51352509963142], [34.67153729947912, 47.516720699720885], [34.66154399938709, 47.52543459999655], [34.65996839999548, 47.523051899591394], [34.65565589973887, 47.52409109961778], [34.655886599583944, 47.525047400109905], [34.65926889969343, 47.52420699996632], [34.6570373002383, 47.52580809971539], [34.6594720005784, 47.52558310018277], [34.65554999976719, 47.526567899772544], [34.64983279957318, 47.53133920020912], [34.645238200424515, 47.54110679955444], [34.63166890010744, 47.544994099917815], [34.628702399474065, 47.54370679982234], [34.618668300404664, 47.54428439965599], [34.61225509978534, 47.54105250020915], [34.610822800680076, 47.53785840041645], [34.60038100009586, 47.534513799857685], [34.59816009943984, 47.52584800043664], [34.59621009971849, 47.52492159985273], [34.59231019986139, 47.526186699702166], [34.58905940014735, 47.5231546996746], [34.58930479980726, 47.520611599983404], [34.59252810049653, 47.5192262995621], [34.58209969949257, 47.521119200127785], [34.58075120036921, 47.520157000360236], [34.58551550012739, 47.51882690030237], [34.58411469981961, 47.51734110025688], [34.580319399977974, 47.51746290023908], [34.5813735004722, 47.51653319984617], [34.57189860035382, 47.52321270032451], [34.545905300421495, 47.53139170009893], [34.53309099998368, 47.52890340020706], [34.51965180055152, 47.512358400079826], [34.51897860064128, 47.51009200040171], [34.52222069943576, 47.506864699907986], [34.520140000128755, 47.50705720031255], [34.5178090997742, 47.50421979999236], [34.516667900388725, 47.50897590007433], [34.5132144997086, 47.50901939977916], [34.50666459956304, 47.501945800188984], [34.500719500619645, 47.49849930009059], [34.421145000057514, 47.49656389980579], [34.400111100053536, 47.50157530027516], [34.3900796994482, 47.51020429964663], [34.38433709992375, 47.51256670012707], [34.380622199796186, 47.50914989980246], [34.37357600043633, 47.506874200335496], [34.37303160035946, 47.503891899727904], [34.38626829956356, 47.504424599901235], [34.3888137003661, 47.50640859987827], [34.39090579987221, 47.50452060026769], [34.38984900051305, 47.50336999985749], [34.38420299991208, 47.50190779994821], [34.38282430061587, 47.49861160006014], [34.37994630010211, 47.50109049971805], [34.377886400481046, 47.49557079979974], [34.37367530055451, 47.49530979973479], [34.36699119971789, 47.49100559970001], [34.36765910034653, 47.48891040031741], [34.37070339988681, 47.48866760015408], [34.37206600032943, 47.49131009990418], [34.37336949980403, 47.490858800434076], [34.372936299715164, 47.486865899923984], [34.36264870031327, 47.48186679958648], [34.36233490045765, 47.48362869989384], [34.35121179980098, 47.48118700018614], [34.349843899731006, 47.477456299849486], [34.340193300197946, 47.46809930009875], [34.343122199645684, 47.4498727999373], [34.336679599889315, 47.44618980026625], [34.327047799520784, 47.43641540039685], [34.30604340025428, 47.428925600188286], [34.295832199909135, 47.426902300102654], [34.292205900046156, 47.423788399988446], [34.28658660062773, 47.42424480039813], [34.28363079942899, 47.422093400087135], [34.283880300611195, 47.41806719968775], [34.28153340015839, 47.415525400263014], [34.28302469952778, 47.4243872999659], [34.29118929975558, 47.4256393997377], [34.27944119982808, 47.43454309983557], [34.271834500292506, 47.436292000224476], [34.26004890033503, 47.434216500263545], [34.23659029946293, 47.42341460018635], [34.219483100291086, 47.41762890009652], [34.21272130062825, 47.41246159988194], [34.204572699800025, 47.410125600143964], [34.184415900011246, 47.41223290001794], [34.15935139987178, 47.42064159994499], [34.145824299447305, 47.42347630017091], [34.11833699948993, 47.41579399976836], [34.088280200227466, 47.42157619986031], [34.06735900030407, 47.42242189985419], [34.05538019934729, 47.4199356998476], [34.04954370042038, 47.417282300167116], [34.04458159998373, 47.412635899941996], [34.04381450059892, 47.41037790004919], [34.04785930007496, 47.40724479996447], [34.04317619988294, 47.40435120028616], [34.0374845002155, 47.38155599975228], [34.01683799984395, 47.34444489982503], [34.02486199976928, 47.33533999996178], [34.030036000120084, 47.33560180038614], [34.03478090022151, 47.34053120025872], [34.03947469959152, 47.34234510002641], [34.048962999494776, 47.352894700236014], [34.04842529980354, 47.3496855999347], [34.06396869958456, 47.344955000226065], [34.069665700504515, 47.34558379992192], [34.08378479998479, 47.343482900198524], [34.106959099923884, 47.34574740013079], [34.115906899544605, 47.35083949970534], [34.11585329951929, 47.35403770019752], [34.11228060014672, 47.357813499867625], [34.11929730007654, 47.35440839970042], [34.1273063000422, 47.35842039956939], [34.13580889959866, 47.37665220043473], [34.140025400615414, 47.380524499534985], [34.14533609967579, 47.382253500395784], [34.14870500045156, 47.3896118995381], [34.15267999987788, 47.39110089996338], [34.15421960027822, 47.3977645998896], [34.158811599742414, 47.40004859995804], [34.16351079954509, 47.400379000007305], [34.16478219969842, 47.39899919963677], [34.160190200121, 47.398439999659985], [34.15686960001155, 47.39623220039624], [34.15651020006816, 47.393040200338426], [34.149010799667394, 47.384490899762326], [34.15095670055239, 47.37509560033056], [34.16008290027425, 47.36365299976185], [34.153989000438365, 47.360684299575425], [34.154267899962434, 47.352620299995586], [34.15951969946562, 47.34965099995691], [34.163993600327416, 47.349792800280916], [34.15397289947464, 47.3468160002071], [34.154718499991255, 47.343446499707355], [34.162014099503175, 47.33949889957273], [34.17264099947614, 47.339262600059506], [34.17558609994214, 47.33799750027357], [34.18125089972077, 47.3304191002616], [34.186062799907006, 47.32877749979128], [34.18828369986444, 47.32290509959807], [34.19623910051841, 47.322803299709115], [34.19997270061362, 47.316566600091235], [34.208311699830226, 47.314813600288744], [34.21105560056438, 47.31597010040522], [34.216117000050254, 47.31295690012912], [34.22167720059853, 47.31285329984362], [34.225013799581596, 47.310281800208045], [34.2144835003694, 47.31007450020667], [34.207225400300786, 47.31307880021798], [34.19379290027811, 47.312824199918225], [34.191679400107276, 47.31829039961925], [34.18184100037489, 47.32182509996694], [34.18251159936315, 47.32446870006443], [34.176361300235264, 47.3282866996535], [34.17281269995414, 47.33288599975927], [34.16048530056029, 47.33259150013303], [34.15584239970866, 47.32823030032483], [34.15176269958442, 47.338179299677854], [34.14078440005175, 47.340813000392195], [34.1348848997322, 47.340324900443235], [34.13107750018054, 47.34223609957255], [34.11389530041369, 47.337695800249186], [34.099188700406465, 47.33835370028844], [34.08280849992082, 47.336725100177354], [34.06676350028074, 47.33831380011371], [34.05378699999502, 47.33394759976848], [34.0406602997697, 47.32452689993253], [34.03367579937891, 47.32282880040731], [34.02855550038141, 47.3178994000939], [34.027239800548706, 47.31216040030932], [34.02267340053571, 47.31203489974529], [34.015659399467, 47.30703909959921], [34.0083556998297, 47.29762279964016], [34.00859179977682, 47.29480499986841], [34.01457309944711, 47.289942200251375], [34.01009109997484, 47.291534099970825], [34.00633870036411, 47.29034970016611], [33.99338359994498, 47.26498260004288], [33.99393079967469, 47.259259700373576], [33.99048949959793, 47.250927200328995], [33.99302290060597, 47.24786570027882], [33.9900336006264, 47.247303999857394], [33.986796099885204, 47.234868500147115], [33.99014089969789, 47.23061940030136], [33.98461820010552, 47.2299618995831], [33.98178849980575, 47.22459590002981], [33.96959780061779, 47.212481099833106], [33.97152099939296, 47.210575300153366], [33.964785900410284, 47.208556399767794], [33.94663539955782, 47.19667859976577], [33.931783999808864, 47.180410099685794], [33.93260750039778, 47.17733130032136], [33.9388140998465, 47.17409829965577], [33.9435589006541, 47.17349660016325], [33.94502339957449, 47.17227860036899], [33.94725769996266, 47.16920249956821], [33.94230370012074, 47.17273259998444], [33.93030079946764, 47.17532900004394], [33.903760300163626, 47.159205299572434], [33.86394560040323, 47.14383939983391], [33.86374710003135, 47.142310600028374], [33.86935290037087, 47.13884049981004], [33.862129699831435, 47.14082189976149], [33.85831830020483, 47.140435100140365], [33.85245499963776, 47.13537749976612], [33.851779099530795, 47.122745899845434], [33.84727839965986, 47.10769799975], [33.84851749951931, 47.10410520000962], [33.844800000617234, 47.102191800261416], [33.83900639989658, 47.092207600217314], [33.8268666996679, 47.079591400327416], [33.83110999978887, 47.07626890004306], [33.83764650009258, 47.076204899627314], [33.845830000519534, 47.07293879980168], [33.86493129951962, 47.071919400123996], [33.857878399556036, 47.069836800321646], [33.83536930024797, 47.07402389954527], [33.828116600151596, 47.074213800072854], [33.82062790040954, 47.07246019993224], [33.81040329996253, 47.06160800027624], [33.81635250028456, 47.05944820012204], [33.8252788996942, 47.05890280016531], [33.8052534994478, 47.056488099801776], [33.79269539949452, 47.04817309976648], [33.791837099603434, 47.04558879993354], [33.78272829976918, 47.04479190014638], [33.77198340022698, 47.04052940031911], [33.75901220034532, 47.028954100287315], [33.75916510006092, 47.02522059996915], [33.75378460063053, 47.02632130038476], [33.727356799944204, 47.01439180038593], [33.72369290045967, 47.01203630031217], [33.723317400287975, 47.00949959999852], [33.7177223001137, 47.008257699971594], [33.700775600460396, 46.9946588001639], [33.70058029945395, 46.98833639994715], [33.70700690042054, 46.98506490016283], [33.70128840037761, 46.985260699690315], [33.7006983000222, 46.977143199633595], [33.69911580027307, 46.97137279983218], [33.69870539933779, 46.9608184996861], [33.703184699617935, 46.9553667000326], [33.696224400044215, 46.94472150033285], [33.69871220018704, 46.93320200019868], [33.68975760038624, 46.921218900217426], [33.689341800465655, 46.917303900068084], [33.70420930035373, 46.912791299578664], [33.70763720053987, 46.910368999942214], [33.706789599460556, 46.9069130998898], [33.71035959961011, 46.90829840002839], [33.711478099981704, 46.906144399821], [33.707375700598035, 46.9019002004226], [33.70707659970116, 46.903455199670226], [33.7031256997267, 46.90293649955957], [33.70073319943254, 46.90548010016065], [33.70322229949031, 46.90926590025342], [33.69506839973574, 46.91119720023464], [33.68479279951775, 46.90023710033838], [33.680903599445244, 46.89855470031109], [33.67303670001278, 46.89852350010781], [33.661664099390784, 46.902698300215455], [33.652735100318836, 46.90221270025238], [33.63920600008822, 46.897092099716794], [33.63611340024692, 46.89347410011449], [33.63550189986019, 46.88624279964694], [33.63648889993771, 46.87211829994997], [33.64169240024038, 46.86605230002585], [33.64903090048789, 46.86510600037459], [33.651503900069834, 46.86784579974859], [33.654368500431985, 46.86626499994588], [33.662077200327886, 46.86691420032142], [33.66455550040172, 46.87318550005577], [33.66540310037972, 46.869657499780295], [33.66749520014124, 46.868971700287844], [33.6718565003332, 46.874157299637055], [33.67212469955347, 46.86976020025212], [33.68190939989634, 46.86827849988265], [33.68139450033334, 46.865678199619175], [33.68724700043729, 46.86956579965556], [33.6876896005043, 46.86774310019065], [33.69660530018954, 46.867090199652424], [33.701309900111184, 46.86567820003997], [33.696200200351974, 46.8666537999789], [33.678261600658715, 46.865280200221676], [33.67674079936982, 46.86462559991484], [33.67758300020954, 46.86273659958781], [33.66673349963565, 46.864709900358854], [33.66375090053636, 46.86278060040866], [33.665558699999266, 46.860040599865265], [33.65704539983575, 46.862421199719996], [33.655752499527594, 46.85881909958687], [33.65135369990661, 46.861799399578864], [33.645592299340336, 46.863118099793404], [33.642486299775705, 46.861680199769644], [33.6375563999229, 46.843916899873285], [33.640630199440714, 46.842225399797044], [33.64600540053461, 46.842218100047106], [33.65189550006163, 46.83788440031875], [33.644884199471264, 46.8398293004047], [33.63324880041403, 46.8388697000905], [33.630534400415605, 46.83740549992743], [33.622207499990516, 46.82705060019212], [33.61166239939914, 46.82456019957454], [33.61428829974556, 46.8215724000684], [33.623166399350254, 46.8197938998366], [33.61786899949863, 46.82019210043233], [33.614819299818656, 46.81556670030402], [33.61271919975369, 46.815502500298116], [33.6065285998788, 46.82313790030075], [33.59947709963923, 46.82495300028679], [33.59064460056482, 46.82430330022483], [33.57678290002378, 46.81854030007015], [33.58598690049598, 46.80957140014125], [33.57741059990274, 46.81531519997855], [33.56762590001191, 46.81717099994136], [33.54794649984481, 46.81698740006156], [33.51109530057547, 46.820622500145184], [33.5087727994974, 46.81923409982523], [33.491542300092576, 46.82054449968408], [33.47747279969254, 46.81896879988993], [33.46470430067029, 46.8153296004213], [33.46340199938953, 46.816110400088846], [33.464047000106575, 46.81501419979297], [33.45271739955581, 46.802429800403424], [33.42082050029902, 46.78504539955856], [33.417223699390696, 46.78115349966018], [33.41218109978492, 46.779470999868295], [33.40725120051621, 46.7711018996912], [33.405118900257214, 46.770949499828305], [33.400027999573126, 46.76626649958684], [33.40138660009431, 46.76879769957883], [33.39601009942592, 46.7667497001573], [33.39849140013818, 46.76026969969072], [33.39183120051048, 46.765001499808214], [33.385730499425115, 46.76340220023227], [33.37547779985916, 46.774193699828416]], [[33.39222549972691, 46.764987799835275], [33.39186339971149, 46.76536990005881], [33.39168909985508, 46.765215599820785], [33.39222549972691, 46.764987799835275]], [[33.70015649942528, 46.97679920027292], [33.700424699577326, 46.97637640012638], [33.70044620011556, 46.97695100009259], [33.70015649942528, 46.97679920027292]], [[33.70440239958318, 46.98568150000874], [33.704016199954964, 46.985874500357575], [33.70391160040834, 46.985837000236295], [33.70440239958318, 46.98568150000874]], [[33.70351260033177, 46.985978799760034], [33.70349249952836, 46.98584850023984], [33.70364410045246, 46.985851700296905], [33.70351260033177, 46.985978799760034]], [[34.028819600111056, 47.33549179957196], [34.0300468006434, 47.33538360001252], [34.03029349999387, 47.335777599661476], [34.03011919953929, 47.33562990018555], [34.0298830994236, 47.33552999977462], [34.028819600111056, 47.33549179957196]], [[33.93114230057206, 47.55190529965368], [33.93120070026423, 47.551994900432845], [33.93109069982641, 47.551958700087845], [33.93114230057206, 47.55190529965368]], [[33.81911250038656, 47.05858399964781], [33.81838830018717, 47.058830600082075], [33.81800539991516, 47.058714100423686], [33.81911250038656, 47.05858399964781]], [[33.692657099549095, 46.91054309968385], [33.69316399974592, 46.910198599991205], [33.69316129997974, 46.9106402003399], [33.692657099549095, 46.91054309968385]]]}}]}