{"type": "FeatureCollection", "features": [{"type": "Feature", "properties": {"name": "kozachi_laheri_lowland", "surface": "model_terrain_bias_removed"}, "geometry": {"type": "LineString", "coordinates": [[33.023946, 46.719282], [33.023684, 46.719462], [33.023422, 46.719642], [33.023161, 46.719822], [33.022899, 46.720002], [33.022638, 46.720182], [33.022376, 46.720362], [33.022114, 46.720542], [33.021853, 46.720722], [33.021591, 46.720902], [33.021329, 46.721083], [33.021068, 46.721263], [33.020806, 46.721443], [33.020544, 46.721623], [33.020283, 46.721623], [33.020021, 46.721623], [33.019759, 46.721803], [33.019498, 46.721623], [33.019236, 46.721623], [33.018974, 46.721623], [33.018712, 46.721623], [33.018451, 46.721443], [33.018189, 46.721263], [33.017927, 46.721263], [33.017666, 46.721263], [33.017404, 46.721263], [33.017142, 46.721263], [33.01688, 46.721263], [33.016619, 46.721263], [33.016357, 46.721443], [33.016095, 46.721623], [33.015834, 46.721803], [33.015572, 46.721983], [33.01531, 46.722163], [33.015049, 46.722343], [33.014787, 46.722523], [33.015049, 46.722703], [33.015049, 46.722883], [33.015049, 46.723063], [33.014787, 46.723243], [33.015049, 46.723423], [33.015311, 46.723603], [33.015573, 46.723603], [33.015834, 46.723783], [33.015834, 46.723963], [33.016096, 46.724143], [33.016358, 46.724143], [33.01662, 46.724323], [33.016881, 46.724503], [33.017143, 46.724503], [33.017405, 46.724503], [33.017667, 46.724503], [33.017928, 46.724683], [33.01819, 46.724683], [33.018452, 46.724503], [33.018713, 46.724323], [33.018975, 46.724143], [33.019237, 46.723963], [33.019498, 46.723783], [33.01976, 46.723783], [33.020022, 46.723962], [33.020022, 46.724142], [33.020022, 46.724322], [33.01976, 46.724502], [33.01976, 46.724682], [33.019761, 46.724862], [33.019761, 46.725042], [33.020022, 46.725222], [33.020284, 46.725402], [33.020284, 46.725582], [33.020546, 46.725762], [33.020808, 46.725762], [33.02107, 46.725762], [33.021331, 46.725942], [33.021331, 46.726122], [33.021593, 46.726302], [33.021855, 46.726482], [33.021855, 46.726662], [33.022117, 46.726842], [33.022379, 46.726842], [33.02264, 46.726842], [33.022902, 46.726842], [33.023164, 46.726662], [33.023425, 46.726482], [33.023687, 46.726302], [33.023949, 46.726482], [33.023949, 46.726661], [33.023949, 46.726841], [33.023949, 46.727021], [33.023949, 46.727201], [33.023688, 46.727381], [33.023688, 46.727561], [33.023688, 46.727741], [33.023688, 46.727921], [33.02395, 46.728101], [33.024211, 46.728101], [33.024473, 46.727921], [33.024735, 46.727741], [33.024996, 46.727561], [33.025258, 46.727561], [33.02552, 46.727381], [33.025782, 46.727561], [33.026043, 46.727741], [33.026043, 46.727921], [33.025782, 46.728101], [33.026044, 46.728281], [33.026305, 46.728281], [33.026567, 46.728101], [33.026829, 46.728101], [33.027091, 46.728101], [33.027352, 46.728281], [33.027614, 46.728461], [33.027614, 46.72864], [33.027614, 46.72882], [33.027615, 46.729], [33.027876, 46.72918], [33.028138, 46.72918], [33.0284, 46.72936], [33.028662, 46.72954], [33.0284, 46.72972], [33.0284, 46.7299], [33.028139, 46.73008], [33.028139, 46.73026], [33.027877, 46.73044], [33.027615, 46.73062], [33.027354, 46.7308], [33.027092, 46.73098], [33.02683, 46.73116], [33.026569, 46.73134], [33.026307, 46.731521], [33.026045, 46.731701], [33.025784, 46.731881], [33.025522, 46.732061], [33.02526, 46.732241], [33.024999, 46.732421], [33.024737, 46.732601], [33.024475, 46.732781], [33.024214, 46.732961], [33.023952, 46.733141], [33.024214, 46.733321], [33.024475, 46.733321], [33.024737, 46.733501], [33.024737, 46.733681], [33.024476, 46.733861], [33.024214, 46.734041], [33.024476, 46.734221], [33.024738, 46.734221], [33.025, 46.734401], [33.025261, 46.734401], [33.025523, 46.7344], [33.025785, 46.7344], [33.026047, 46.7344], [33.026308, 46.7344], [33.02657, 46.7344], [33.026832, 46.7344], [33.027094, 46.7344], [33.027355, 46.7344], [33.027617, 46.7344], [33.027879, 46.7344], [33.028141, 46.7344], [33.028403, 46.7344], [33.028664, 46.7344], [33.028926, 46.73458], [33.029188, 46.73476], [33.02945, 46.734759], [33.029712, 46.734939], [33.029974, 46.735119], [33.030235, 46.735119], [33.030497, 46.735299], [33.030759, 46.735479], [33.031021, 46.735479], [33.031283, 46.735659], [33.031545, 46.735659], [33.031807, 46.735839], [33.032068, 46.736019], [33.03233, 46.736019], [33.032592, 46.735839], [33.032854, 46.735658], [33.033115, 46.735478], [33.033377, 46.735298], [33.033639, 46.735118], [33.0339, 46.734938], [33.034162, 46.734758], [33.034424, 46.734578], [33.034685, 46.734398], [33.034947, 46.734218], [33.035208, 46.734038], [33.03547, 46.733858], [33.035732, 46.733858], [33.035994, 46.733858], [33.036255, 46.733858], [33.036517, 46.733858], [33.036779, 46.734037], [33.036779, 46.734217], [33.037041, 46.734397], [33.037041, 46.734577], [33.037041, 46.734757], [33.037042, 46.734937], [33.037303, 46.735117], [33.037565, 46.735297], [33.037565, 46.735477], [33.037827, 46.735657], [33.037827, 46.735837], [33.038089, 46.736017], [33.038351, 46.736197], [33.038613, 46.736377], [33.038875, 46.736557], [33.039137, 46.736376], [33.039398, 46.736196], [33.03966, 46.736016], [33.039922, 46.735836], [33.040183, 46.735656], [33.040445, 46.735476], [33.040707, 46.735296], [33.040968, 46.735116], [33.04123, 46.734936], [33.041492, 46.734756], [33.041753, 46.734576], [33.042015, 46.734396], [33.042277, 46.734216], [33.042538, 46.734035], [33.0428, 46.733855], [33.043061, 46.733675], [33.043323, 46.733495], [33.043585, 46.733315], [33.043846, 46.733135], [33.044108, 46.732955], [33.04437, 46.732775], [33.044631, 46.732595], [33.044893, 46.732415], [33.045154, 46.732235], [33.045416, 46.732054], [33.045678, 46.731874], [33.045939, 46.731694], [33.046201, 46.731514], [33.046462, 46.731334], [33.046462, 46.731154], [33.046462, 46.730974], [33.0462, 46.730794], [33.0462, 46.730614], [33.0462, 46.730434], [33.0462, 46.730254], [33.046461, 46.730074], [33.046723, 46.729894], [33.046985, 46.729714], [33.047246, 46.729534], [33.047508, 46.729354], [33.047769, 46.729174], [33.048031, 46.728994], [33.048292, 46.728814], [33.048554, 46.728634], [33.048816, 46.728453], [33.048554, 46.728274], [33.048292, 46.728094], [33.048553, 46.727914], [33.048815, 46.727733], [33.049077, 46.727553], [33.049338, 46.727373], [33.0496, 46.727193], [33.049861, 46.727193], [33.050123, 46.727193], [33.050385, 46.727373], [33.050647, 46.727193], [33.050908, 46.727193], [33.05117, 46.727193], [33.051432, 46.727012], [33.051693, 46.726832], [33.051955, 46.726652], [33.052217, 46.726832], [33.052479, 46.726832], [33.05274, 46.726652], [33.053002, 46.726472], [33.053264, 46.726652], [33.053264, 46.726832], [33.053526, 46.727011], [33.053787, 46.727011], [33.054049, 46.727191], [33.054311, 46.727191], [33.054573, 46.727191], [33.054835, 46.727191], [33.055096, 46.727371], [33.054835, 46.727551], [33.054835, 46.727731], [33.054574, 46.727911], [33.054312, 46.728091], [33.05405, 46.728271], [33.053789, 46.728451], [33.053527, 46.728631], [33.053266, 46.728811], [33.053004, 46.728992], [33.052743, 46.729172], [33.052743, 46.729352], [33.052481, 46.729532], [33.05222, 46.729712], [33.051958, 46.729892], [33.051696, 46.730072], [33.051435, 46.730252], [33.051173, 46.730432], [33.051435, 46.730612], [33.051435, 46.730792], [33.051697, 46.730972], [33.051959, 46.731152], [33.052221, 46.731332], [33.052483, 46.731512], [33.052745, 46.731511], [33.053007, 46.731691], [33.053007, 46.731871], [33.053007, 46.732051], [33.053007, 46.732231], [33.053007, 46.732411], [33.053269, 46.732591], [33.053531, 46.732591], [33.053793, 46.732591], [33.054055, 46.732771], [33.054317, 46.732951], [33.054579, 46.73313], [33.054579, 46.73331], [33.054841, 46.73349], [33.055103, 46.73331], [33.055364, 46.73313], [33.055626, 46.73295], [33.055887, 46.73277], [33.056149, 46.73259], [33.05641, 46.73241], [33.056672, 46.732229], [33.056934, 46.732049], [33.057195, 46.731869], [33.057457, 46.731689], [33.057718, 46.731509], [33.05798, 46.731509], [33.058242, 46.731329], [33.058503, 46.731149], [33.058765, 46.730969], [33.059026, 46.730788], [33.059288, 46.730788], [33.05955, 46.730788], [33.059812, 46.730968], [33.060074, 46.730968], [33.060336, 46.731148], [33.060597, 46.731328], [33.060859, 46.731147], [33.061121, 46.730967], [33.061382, 46.730787], [33.061644, 46.730607], [33.061905, 46.730427], [33.062167, 46.730247], [33.062428, 46.730067], [33.06269, 46.729887], [33.062951, 46.729706], [33.063213, 46.729526], [33.063213, 46.729346], [33.063213, 46.729166], [33.062951, 46.728986], [33.06295, 46.728806], [33.063212, 46.728626], [33.063473, 46.728446], [33.063735, 46.728266], [33.063997, 46.728086], [33.064258, 46.727906], [33.06452, 46.727726], [33.064519, 46.727546], [33.064781, 46.727366], [33.064519, 46.727186], [33.064257, 46.727006], [33.063995, 46.726826], [33.063733, 46.726646], [33.063471, 46.726466], [33.063733, 46.726286], [33.063732, 46.726106], [33.063994, 46.725926], [33.064255, 46.725746], [33.064517, 46.725566], [33.064779, 46.725386], [33.06504, 46.725206], [33.064778, 46.725026], [33.064516, 46.725026], [33.064254, 46.724846], [33.063992, 46.724666], [33.063731, 46.724666], [33.063469, 46.724667], [33.063207, 46.724487], [33.062945, 46.724307], [33.062683, 46.724307], [33.062421, 46.724127], [33.06216, 46.723947], [33.061898, 46.723947], [33.061636, 46.723768], [33.061374, 46.723768], [33.061112, 46.723588], [33.060851, 46.723588], [33.060589, 46.723408], [33.060327, 46.723408], [33.060065, 46.723229], [33.059803, 46.723229], [33.059541, 46.723049], [33.059279, 46.722869], [33.059018, 46.723049], [33.058756, 46.723229], [33.058494, 46.723049], [33.058233, 46.72305], [33.057971, 46.72287], [33.057709, 46.72287], [33.057447, 46.72269], [33.057447, 46.72251], [33.057185, 46.72233], [33.056923, 46.72215], [33.056661, 46.72215], [33.0564, 46.72233], [33.056138, 46.722331], [33.055876, 46.722151], [33.055614, 46.721971], [33.055614, 46.721791], [33.055876, 46.721611], [33.056137, 46.721431], [33.056399, 46.721251], [33.05666, 46.72107], [33.05666, 46.72089], [33.056922, 46.72071], [33.057183, 46.72053], [33.056921, 46.72035], [33.056659, 46.720171], [33.056397, 46.719991], [33.056659, 46.719811], [33.056921, 46.71963], [33.057182, 46.71945], [33.057444, 46.71927], [33.057705, 46.71909], [33.057967, 46.71891], [33.058228, 46.71873], [33.05849, 46.71855], [33.058751, 46.71837], [33.059013, 46.71819], [33.059274, 46.718009], [33.059536, 46.717829], [33.059797, 46.717649], [33.060059, 46.717469], [33.06032, 46.717289], [33.060582, 46.717109], [33.060843, 46.716929], [33.061105, 46.716749], [33.061366, 46.716568], [33.061627, 46.716388], [33.061889, 46.716208], [33.06215, 46.716028], [33.062412, 46.715848], [33.062673, 46.715668], [33.062935, 46.715488], [33.063197, 46.715488], [33.063458, 46.715667], [33.06372, 46.715667], [33.063982, 46.715487], [33.064243, 46.715307], [33.064505, 46.715127], [33.064766, 46.714947], [33.065027, 46.714767], [33.065289, 46.714766], [33.065551, 46.714946], [33.065813, 46.715126], [33.066074, 46.714946], [33.066336, 46.714766], [33.066597, 46.714586], [33.066859, 46.714406], [33.06712, 46.714225], [33.06712, 46.714045], [33.06712, 46.713865], [33.067381, 46.713685], [33.067643, 46.713505], [33.067904, 46.713325], [33.068166, 46.713145], [33.068427, 46.712965], [33.068165, 46.712785], [33.067903, 46.712605], [33.068165, 46.712425], [33.067903, 46.712245], [33.068164, 46.712065], [33.068426, 46.711885], [33.068425, 46.711705], [33.068687, 46.711525], [33.068948, 46.711345], [33.068686, 46.711165], [33.068425, 46.711165], [33.068163, 46.711165], [33.067901, 46.710985], [33.068163, 46.710805], [33.067901, 46.710625], [33.067639, 46.710445], [33.067377, 46.710266], [33.067638, 46.710085], [33.0679, 46.709905], [33.068161, 46.709725], [33.068423, 46.709545], [33.068161, 46.709365], [33.067899, 46.709365], [33.067637, 46.709186], [33.067637, 46.709006], [33.067637, 46.708826], [33.067637, 46.708646], [33.067636, 46.708466], [33.067636, 46.708286], [33.067636, 46.708106], [33.067636, 46.707926], [33.067636, 46.707746], [33.067635, 46.707566], [33.067635, 46.707386], [33.067635, 46.707206], [33.067373, 46.707026], [33.067373, 46.706846], [33.067111, 46.706666], [33.067111, 46.706486], [33.067372, 46.706306], [33.067372, 46.706126], [33.067372, 46.705946], [33.06711, 46.705766], [33.06711, 46.705586], [33.067109, 46.705406], [33.067371, 46.705226], [33.067109, 46.705046], [33.066847, 46.705046], [33.066586, 46.705047], [33.066324, 46.704867], [33.066062, 46.704867], [33.0658, 46.704867], [33.065539, 46.705047], [33.065278, 46.705227], [33.065016, 46.705227], [33.064755, 46.705408], [33.064493, 46.705228], [33.064493, 46.705048], [33.064492, 46.704868], [33.064492, 46.704688], [33.06423, 46.704508], [33.06423, 46.704328], [33.063968, 46.704148], [33.063968, 46.703968], [33.063706, 46.703788], [33.063445, 46.703968], [33.063183, 46.703969], [33.062921, 46.703969], [33.06266, 46.703969], [33.062398, 46.703789], [33.062398, 46.703609], [33.062659, 46.703429], [33.062921, 46.703249], [33.063182, 46.703069], [33.063182, 46.702889], [33.063182, 46.702709], [33.06292, 46.702529], [33.063181, 46.702349], [33.063443, 46.702169], [33.063442, 46.701989], [33.063442, 46.701809], [33.063704, 46.701628], [33.063965, 46.701448], [33.063703, 46.701268], [33.063703, 46.701088], [33.063703, 46.700909], [33.063964, 46.700728], [33.064226, 46.700548], [33.064487, 46.700368], [33.064748, 46.700188], [33.06501, 46.700008], [33.065271, 46.699828], [33.065533, 46.699648], [33.065794, 46.699467], [33.066055, 46.699287], [33.066317, 46.699107], [33.066578, 46.698927], [33.066839, 46.698747], [33.067101, 46.698567], [33.067362, 46.698387], [33.067624, 46.698206], [33.067885, 46.698026], [33.068146, 46.697846], [33.068408, 46.697666], [33.068407, 46.697486], [33.068407, 46.697306], [33.068407, 46.697126], [33.068668, 46.696946], [33.06893, 46.696766], [33.069191, 46.696586], [33.069452, 46.696406], [33.069714, 46.696225], [33.069975, 46.696045], [33.070237, 46.695865], [33.069975, 46.695685], [33.069713, 46.695685], [33.069451, 46.695506], [33.06919, 46.695326], [33.069451, 46.695146], [33.069712, 46.694966], [33.069712, 46.694786], [33.06945, 46.694606], [33.069712, 46.694426], [33.069973, 46.694245], [33.070234, 46.694065], [33.070496, 46.693885], [33.070757, 46.693705], [33.071018, 46.693525], [33.07128, 46.693345], [33.071541, 46.693165], [33.071802, 46.692984], [33.072064, 46.692804], [33.072325, 46.692624], [33.072586, 46.692444], [33.072324, 46.692264], [33.072586, 46.692084], [33.072847, 46.691904], [33.073108, 46.691724], [33.073108, 46.691544], [33.073108, 46.691364], [33.073369, 46.691184], [33.073631, 46.691003], [33.073892, 46.690823], [33.074153, 46.690643], [33.074153, 46.690463], [33.074414, 46.690283], [33.074676, 46.690103], [33.074937, 46.689923], [33.075198, 46.689742], [33.07546, 46.689562], [33.075721, 46.689382], [33.075982, 46.689202], [33.076243, 46.689022], [33.076505, 46.688842], [33.076766, 46.688662], [33.077027, 46.688481], [33.077289, 46.688301], [33.07755, 46.688121], [33.077811, 46.687941], [33.078073, 46.687761], [33.078334, 46.687581], [33.078595, 46.6874], [33.078856, 46.68722], [33.079118, 46.6874], [33.07938, 46.68758], [33.079642, 46.68776], [33.079903, 46.687759], [33.080165, 46.687579], [33.080426, 46.687399], [33.080687, 46.687219], [33.080949, 46.687039], [33.08121, 46.686859], [33.081471, 46.686858], [33.081733, 46.687038], [33.081995, 46.687038], [33.082257, 46.687218], [33.082257, 46.687398], [33.082257, 46.687578], [33.082257, 46.687758], [33.082258, 46.687938], [33.082519, 46.688118], [33.08252, 46.688298], [33.082782, 46.688477], [33.082782, 46.688657], [33.083044, 46.688837], [33.083044, 46.689017], [33.083306, 46.689197], [33.083568, 46.689377], [33.083829, 46.689376], [33.084091, 46.689376], [33.084353, 46.689556], [33.084614, 46.689376], [33.084875, 46.689196], [33.085136, 46.689016], [33.085398, 46.688835], [33.085659, 46.688655], [33.08592, 46.688475], [33.086181, 46.688295], [33.086443, 46.688115], [33.086704, 46.687934], [33.086965, 46.687754], [33.087226, 46.687574], [33.087488, 46.687394], [33.087749, 46.687214], [33.08801, 46.687034], [33.088272, 46.686853], [33.088533, 46.686673], [33.088794, 46.686493], [33.089055, 46.686313], [33.089316, 46.686133], [33.089578, 46.685952], [33.089839, 46.685772], [33.0901, 46.685592], [33.090361, 46.685412], [33.090623, 46.685232], [33.090884, 46.685051], [33.091145, 46.684871], [33.091406, 46.684691], [33.091668, 46.684511], [33.091929, 46.684331], [33.09219, 46.68415], [33.092451, 46.68397], [33.092713, 46.68379], [33.092974, 46.68361], [33.093235, 46.68343], [33.093496, 46.68325], [33.093757, 46.683069], [33.094019, 46.682889], [33.09428, 46.682709], [33.094541, 46.682529], [33.094802, 46.682349], [33.095063, 46.682168], [33.095325, 46.681988], [33.095586, 46.681808], [33.095847, 46.681628], [33.096108, 46.681447], [33.096369, 46.681267], [33.096631, 46.681087], [33.096892, 46.680907], [33.097153, 46.680727], [33.097414, 46.680546], [33.097675, 46.680366], [33.097937, 46.680186], [33.098198, 46.680006], [33.098459, 46.679826], [33.09872, 46.679645], [33.098981, 46.679465], [33.099243, 46.679285], [33.099504, 46.679105], [33.099765, 46.678925], [33.100026, 46.678744], [33.100287, 46.678564], [33.100548, 46.678384], [33.10081, 46.678204], [33.101071, 46.678023], [33.101332, 46.677843], [33.101593, 46.677663], [33.101854, 46.677483], [33.102115, 46.677303], [33.102377, 46.677122], [33.102638, 46.676942], [33.102899, 46.676762], [33.10316, 46.676582], [33.103421, 46.676402], [33.103682, 46.676221], [33.103943, 46.676041], [33.104205, 46.675861], [33.104466, 46.675681], [33.104727, 46.6755], [33.104988, 46.67532], [33.105249, 46.67514], [33.10551, 46.67496], [33.105771, 46.67478], [33.106033, 46.674599], [33.106294, 46.674419], [33.106555, 46.674239], [33.106816, 46.674059], [33.107077, 46.673878], [33.107338, 46.673698], [33.107599, 46.673518], [33.10786, 46.673338], [33.108122, 46.673157], [33.108383, 46.672977], [33.108644, 46.672797], [33.108905, 46.672617], [33.109166, 46.672437], [33.109427, 46.672256], [33.109688, 46.672076], [33.109949, 46.671896], [33.110211, 46.671716], [33.110472, 46.671535], [33.110733, 46.671355], [33.110994, 46.671175], [33.111255, 46.670995], [33.111516, 46.670814], [33.111777, 46.670634], [33.112038, 46.670454], [33.112299, 46.670274], [33.11256, 46.670093], [33.112821, 46.669913], [33.113083, 46.669733], [33.113344, 46.669553], [33.113605, 46.669372], [33.113866, 46.669192], [33.114127, 46.669012], [33.114388, 46.668832], [33.114649, 46.668651], [33.11491, 46.668471], [33.115171, 46.668291], [33.115432, 46.668111], [33.115693, 46.66793], [33.115954, 46.66775], [33.116215, 46.66757], [33.116477, 46.66739], [33.116738, 46.667209], [33.116999, 46.667029], [33.11726, 46.666849], [33.117521, 46.666669], [33.117782, 46.666488], [33.118043, 46.666308], [33.118304, 46.666128], [33.118565, 46.665948], [33.118826, 46.665767], [33.119087, 46.665587], [33.119348, 46.665407], [33.119609, 46.665227], [33.11987, 46.665046]]}}]}